start=new Date('2022-04-03T00:00:00.000Z').valueOf();
sats=[{"LAUNCH_DATE":"2020-01-07","INCLINATION":"53.0546","COUNTRY_CODE":"US","ELEMENT_SET_NO":"999","MEAN_MOTION_DOT":"0.00001471","EPOCH":"2022-04-02T20:53:32.279136","NORAD_CAT_ID":"44920","ARG_OF_PERICENTER":"59.2603","OBJECT_TYPE":"PAYLOAD","RA_OF_ASC_NODE":"316.7533","CLASSIFICATION_TYPE":"U","APOAPSIS":"548.338","REF_FRAME":"TEME","MEAN_ANOMALY":"300.8548","SITE":"AFETR","CENTER_NAME":"EARTH","FILE":"3385473","GP_ID":"200321459","SEMIMAJOR_AXIS":"6925.337","ECCENTRICITY":"0.00016410","DECAY_DATE":null,"MEAN_MOTION":"15.06403877","EPHEMERIS_TYPE":"0","PERIAPSIS":"546.065","PERIOD":"95.592","OBJECT_NAME":"STARLINK-1102","TLE_LINE1":"1 44920U 20001G   22092.87051249  .00001471  00000-0  11765-3 0  9999","OBJECT_ID":"2020-001G","MEAN_ELEMENT_THEORY":"SGP4","RCS_SIZE":"LARGE","BSTAR":"0.00011765000000","TLE_LINE2":"2 44920  53.0546 316.7533 0001641  59.2603 300.8548 15.06403877123284","REV_AT_EPOCH":"12328","MEAN_MOTION_DDOT":"0.0000000000000","TIME_SYSTEM":"UTC"},{"ARG_OF_PERICENTER":"75.0915","OBJECT_TYPE":"PAYLOAD","EPOCH":"2022-04-02T21:25:22.922688","MEAN_MOTION_DOT":"0.00000802","NORAD_CAT_ID":"44921","LAUNCH_DATE":"2020-01-07","ELEMENT_SET_NO":"999","COUNTRY_CODE":"US","INCLINATION":"53.0532","CENTER_NAME":"EARTH","FILE":"3385473","GP_ID":"200321209","REF_FRAME":"TEME","MEAN_ANOMALY":"285.0252","SITE":"AFETR","CLASSIFICATION_TYPE":"U","RA_OF_ASC_NODE":"316.6399","APOAPSIS":"548.316","TLE_LINE1":"1 44921U 20001H   22092.89262642  .00000802  00000-0  72731-4 0  9991","OBJECT_ID":"2020-001H","OBJECT_NAME":"STARLINK-1103","PERIAPSIS":"546.090","PERIOD":"95.592","MEAN_MOTION":"15.06403473","EPHEMERIS_TYPE":"0","SEMIMAJOR_AXIS":"6925.338","DECAY_DATE":null,"ECCENTRICITY":"0.00016070","TIME_SYSTEM":"UTC","MEAN_MOTION_DDOT":"0.0000000000000","TLE_LINE2":"2 44921  53.0532 316.6399 0001607  75.0915 285.0252 15.06403473123269","MEAN_ELEMENT_THEORY":"SGP4","RCS_SIZE":"LARGE","BSTAR":"0.00007273100000","REV_AT_EPOCH":"12326"},{"OBJECT_TYPE":"PAYLOAD","ARG_OF_PERICENTER":"65.3587","NORAD_CAT_ID":"44922","MEAN_MOTION_DOT":"0.00000776","EPOCH":"2022-04-02T20:37:37.219584","COUNTRY_CODE":"US","INCLINATION":"53.0546","ELEMENT_SET_NO":"999","LAUNCH_DATE":"2020-01-07","FILE":"3385473","GP_ID":"200320458","CENTER_NAME":"EARTH","SITE":"AFETR","REF_FRAME":"TEME","MEAN_ANOMALY":"294.7571","APOAPSIS":"548.355","RA_OF_ASC_NODE":"316.7876","CLASSIFICATION_TYPE":"U","OBJECT_ID":"2020-001J","TLE_LINE1":"1 44922U 20001J   22092.85945856  .00000776  00000-0  71018-4 0  9990","PERIOD":"95.593","PERIAPSIS":"546.109","OBJECT_NAME":"STARLINK-1104","EPHEMERIS_TYPE":"0","MEAN_MOTION":"15.06394010","ECCENTRICITY":"0.00016210","DECAY_DATE":null,"SEMIMAJOR_AXIS":"6925.367","TIME_SYSTEM":"UTC","MEAN_MOTION_DDOT":"0.0000000000000","REV_AT_EPOCH":"12328","RCS_SIZE":"LARGE","MEAN_ELEMENT_THEORY":"SGP4","BSTAR":"0.00007101800000","TLE_LINE2":"2 44922  53.0546 316.7876 0001621  65.3587 294.7571 15.06394010123288"},{"ARG_OF_PERICENTER":"71.4125","OBJECT_TYPE":"PAYLOAD","EPOCH":"2022-04-02T21:14:46.018176","MEAN_MOTION_DOT":"0.00001203","NORAD_CAT_ID":"44923","LAUNCH_DATE":"2020-01-07","ELEMENT_SET_NO":"999","INCLINATION":"53.0551","COUNTRY_CODE":"US","CENTER_NAME":"EARTH","FILE":"3385473","GP_ID":"200320708","REF_FRAME":"TEME","MEAN_ANOMALY":"288.7012","SITE":"AFETR","CLASSIFICATION_TYPE":"U","RA_OF_ASC_NODE":"316.6836","APOAPSIS":"548.158","TLE_LINE1":"1 44923U 20001K   22092.88525484  .00001203  00000-0  99659-4 0  9992","OBJECT_ID":"2020-001K","OBJECT_NAME":"STARLINK-1106","PERIAPSIS":"546.267","PERIOD":"95.592","EPHEMERIS_TYPE":"0","MEAN_MOTION":"15.06400245","SEMIMAJOR_AXIS":"6925.348","DECAY_DATE":null,"ECCENTRICITY":"0.00013650","TIME_SYSTEM":"UTC","MEAN_MOTION_DDOT":"0.0000000000000","TLE_LINE2":"2 44923  53.0551 316.6836 0001365  71.4125 288.7012 15.06400245123282","MEAN_ELEMENT_THEORY":"SGP4","RCS_SIZE":"LARGE","BSTAR":"0.00009965900000","REV_AT_EPOCH":"12328"},{"MEAN_MOTION":"15.06392694","EPHEMERIS_TYPE":"0","SEMIMAJOR_AXIS":"6925.371","ECCENTRICITY":"0.00015230","DECAY_DATE":null,"TLE_LINE1":"1 44924U 20001L   22092.87420505  .00000904  00000-0  79614-4 0  9996","OBJECT_ID":"2020-001L","PERIAPSIS":"546.181","PERIOD":"95.593","OBJECT_NAME":"STARLINK-1111","RCS_SIZE":"LARGE","BSTAR":"0.00007961400000","MEAN_ELEMENT_THEORY":"SGP4","TLE_LINE2":"2 44924  53.0562 316.7383 0001523  69.1994 290.9158 15.06392694123281","REV_AT_EPOCH":"12328","TIME_SYSTEM":"UTC","MEAN_MOTION_DDOT":"0.0000000000000","MEAN_MOTION_DOT":"0.00000904","EPOCH":"2022-04-02T20:58:51.316320","NORAD_CAT_ID":"44924","LAUNCH_DATE":"2020-01-07","COUNTRY_CODE":"US","INCLINATION":"53.0562","ELEMENT_SET_NO":"999","ARG_OF_PERICENTER":"69.1994","OBJECT_TYPE":"PAYLOAD","REF_FRAME":"TEME","MEAN_ANOMALY":"290.9158","SITE":"AFETR","RA_OF_ASC_NODE":"316.7383","CLASSIFICATION_TYPE":"U","APOAPSIS":"548.291","CENTER_NAME":"EARTH","GP_ID":"200320959","FILE":"3385473"},{"REV_AT_EPOCH":"12328","BSTAR":"0.00008156100000","RCS_SIZE":"LARGE","MEAN_ELEMENT_THEORY":"SGP4","TLE_LINE2":"2 44925  53.0540 316.6601 0001643  61.3934 298.7220 15.06404676123281","MEAN_MOTION_DDOT":"0.0000000000000","TIME_SYSTEM":"UTC","ECCENTRICITY":"0.00016430","DECAY_DATE":null,"SEMIMAJOR_AXIS":"6925.334","EPHEMERIS_TYPE":"0","MEAN_MOTION":"15.06404676","PERIOD":"95.592","PERIAPSIS":"546.061","OBJECT_NAME":"STARLINK-1112","OBJECT_ID":"2020-001M","TLE_LINE1":"1 44925U 20001M   22092.88894045  .00000934  00000-0  81561-4 0  9999","APOAPSIS":"548.337","RA_OF_ASC_NODE":"316.6601","CLASSIFICATION_TYPE":"U","SITE":"AFETR","MEAN_ANOMALY":"298.7220","REF_FRAME":"TEME","GP_ID":"200321710","FILE":"3385473","CENTER_NAME":"EARTH","INCLINATION":"53.0540","COUNTRY_CODE":"US","ELEMENT_SET_NO":"999","LAUNCH_DATE":"2020-01-07","NORAD_CAT_ID":"44925","MEAN_MOTION_DOT":"0.00000934","EPOCH":"2022-04-02T21:20:04.454880","OBJECT_TYPE":"PAYLOAD","ARG_OF_PERICENTER":"61.3934"},{"MEAN_MOTION_DDOT":"0.0000000000000","TIME_SYSTEM":"UTC","BSTAR":"-0.00002864500000","RCS_SIZE":"LARGE","MEAN_ELEMENT_THEORY":"SGP4","TLE_LINE2":"2 44926  53.0034 316.5224 0001549  78.4733 281.6429 15.05579459124005","REV_AT_EPOCH":"12400","PERIOD":"95.644","PERIAPSIS":"548.656","OBJECT_NAME":"STARLINK-1113","TLE_LINE1":"1 44926U 20001N   22092.92355468 -.00000697  00000-0 -28645-4 0  9998","OBJECT_ID":"2020-001N","SEMIMAJOR_AXIS":"6927.865","ECCENTRICITY":"0.00015490","DECAY_DATE":null,"EPHEMERIS_TYPE":"0","MEAN_MOTION":"15.05579459","CENTER_NAME":"EARTH","GP_ID":"200319958","FILE":"3385473","RA_OF_ASC_NODE":"316.5224","CLASSIFICATION_TYPE":"U","APOAPSIS":"550.803","REF_FRAME":"TEME","MEAN_ANOMALY":"281.6429","SITE":"AFETR","ARG_OF_PERICENTER":"78.4733","OBJECT_TYPE":"PAYLOAD","LAUNCH_DATE":"2020-01-07","INCLINATION":"53.0034","COUNTRY_CODE":"US","ELEMENT_SET_NO":"999","MEAN_MOTION_DOT":"-0.00000697","EPOCH":"2022-04-02T22:09:55.124352","NORAD_CAT_ID":"44926"},{"SEMIMAJOR_AXIS":"6925.372","ECCENTRICITY":"0.00014910","DECAY_DATE":null,"MEAN_MOTION":"15.06392502","EPHEMERIS_TYPE":"0","PERIOD":"95.593","PERIAPSIS":"546.204","OBJECT_NAME":"STARLINK-1114","TLE_LINE1":"1 44927U 20001P   22092.90000410 -.00000896  00000-0 -41294-4 0  9997","OBJECT_ID":"2020-001P","RCS_SIZE":"LARGE","BSTAR":"-0.00004129400000","MEAN_ELEMENT_THEORY":"SGP4","TLE_LINE2":"2 44927  53.0539 316.6083 0001491  58.7200 301.3935 15.06392502123291","REV_AT_EPOCH":"12329","MEAN_MOTION_DDOT":"0.0000000000000","TIME_SYSTEM":"UTC","LAUNCH_DATE":"2020-01-07","COUNTRY_CODE":"US","INCLINATION":"53.0539","ELEMENT_SET_NO":"999","MEAN_MOTION_DOT":"-0.00000896","EPOCH":"2022-04-02T21:36:00.354240","NORAD_CAT_ID":"44927","ARG_OF_PERICENTER":"58.7200","OBJECT_TYPE":"PAYLOAD","RA_OF_ASC_NODE":"316.6083","CLASSIFICATION_TYPE":"U","APOAPSIS":"548.269","REF_FRAME":"TEME","MEAN_ANOMALY":"301.3935","SITE":"AFETR","CENTER_NAME":"EARTH","GP_ID":"200320208","FILE":"3385473"},{"RCS_SIZE":"LARGE","MEAN_ELEMENT_THEORY":"SGP4","BSTAR":"-0.00006432100000","TLE_LINE2":"2 44928  53.0540 316.6348 0001585  57.8359 302.2783 15.06386958123296","REV_AT_EPOCH":"12329","MEAN_MOTION_DDOT":"0.0000000000000","TIME_SYSTEM":"UTC","SEMIMAJOR_AXIS":"6925.389","ECCENTRICITY":"0.00015850","DECAY_DATE":null,"EPHEMERIS_TYPE":"0","MEAN_MOTION":"15.06386958","PERIOD":"95.593","PERIAPSIS":"546.156","OBJECT_NAME":"STARLINK-1119","TLE_LINE1":"1 44928U 20001Q   22092.89632390 -.00001239  00000-0 -64321-4 0  9992","OBJECT_ID":"2020-001Q","RA_OF_ASC_NODE":"316.6348","CLASSIFICATION_TYPE":"U","APOAPSIS":"548.351","REF_FRAME":"TEME","MEAN_ANOMALY":"302.2783","SITE":"AFETR","CENTER_NAME":"EARTH","GP_ID":"200321460","FILE":"3385473","LAUNCH_DATE":"2020-01-07","INCLINATION":"53.0540","COUNTRY_CODE":"US","ELEMENT_SET_NO":"999","MEAN_MOTION_DOT":"-0.00001239","EPOCH":"2022-04-02T21:30:42.384960","NORAD_CAT_ID":"44928","ARG_OF_PERICENTER":"57.8359","OBJECT_TYPE":"PAYLOAD"},{"CENTER_NAME":"EARTH","GP_ID":"200321210","FILE":"3385473","REF_FRAME":"TEME","MEAN_ANOMALY":"301.6072","SITE":"AFETR","RA_OF_ASC_NODE":"316.6897","CLASSIFICATION_TYPE":"U","APOAPSIS":"548.315","ARG_OF_PERICENTER":"58.5072","OBJECT_TYPE":"PAYLOAD","MEAN_MOTION_DOT":"0.00000449","EPOCH":"2022-04-02T21:09:27.616896","NORAD_CAT_ID":"44929","LAUNCH_DATE":"2020-01-07","COUNTRY_CODE":"US","INCLINATION":"53.0530","ELEMENT_SET_NO":"999","TIME_SYSTEM":"UTC","MEAN_MOTION_DDOT":"0.0000000000000","RCS_SIZE":"LARGE","MEAN_ELEMENT_THEORY":"SGP4","BSTAR":"0.00004906800000","TLE_LINE2":"2 44929  53.0530 316.6897 0001594  58.5072 301.6072 15.06400756123281","REV_AT_EPOCH":"12328","TLE_LINE1":"1 44929U 20001R   22092.88156964  .00000449  00000-0  49068-4 0  9991","OBJECT_ID":"2020-001R","PERIOD":"95.592","PERIAPSIS":"546.107","OBJECT_NAME":"STARLINK-1121","EPHEMERIS_TYPE":"0","MEAN_MOTION":"15.06400756","SEMIMAJOR_AXIS":"6925.346","ECCENTRICITY":"0.00015940","DECAY_DATE":null}];
